{"type": "FeatureCollection", "features": [ {"type": "Feature", "properties": {"norad_id": 35443, "name": "COSMOS 2251 DEB", "group": "cosmos-2251-debris", "lat": -10.354045142177222, "lon": -39.85692448322251, "alt_km": 600.8086680026227, "timestamp": "2025-12-16T21:38:57.571412+00:00", "meta": {"OBJECT_NAME": "COSMOS 2251 DEB", "OBJECT_ID": "1993-036AKM", "EPOCH": "2025-12-15T08:48:26.743680", "MEAN_MOTION": 14.96932548, "ECCENTRICITY": 0.00731181, "INCLINATION": 73.9871, "RA_OF_ASC_NODE": 326.2641, "ARG_OF_PERICENTER": 107.3149, "MEAN_ANOMALY": 253.6052, "EPHEMERIS_TYPE": 0, "CLASSIFICATION_TYPE": "U", "NORAD_CAT_ID": 35443, "ELEMENT_SET_NO": 999, "REV_AT_EPOCH": 86917, "BSTAR": 0.0020713088, "MEAN_MOTION_DOT": 0.00025182, "MEAN_MOTION_DDOT": 0}, "tle": {"line1": "1 35443U 93036AKM 25349.36697620  .00025182  00000+0  20713-2 0  9994", "line2": "2 35443  73.9871 326.2641 0073118 107.3149 253.6052 14.96932548869170"}}, "geometry": {"type": "Point", "coordinates": [-39.85692448322251, -10.354045142177222]}}, {"type": "Feature", "properties": {"norad_id": 35445, "name": "COSMOS 2251 DEB", "group": "cosmos-2251-debris", "lat": -0.6451279148726401, "lon": 112.25489967661105, "alt_km": 795.2332861149534, "timestamp": "2025-12-16T21:38:57.571422+00:00", "meta": {"OBJECT_NAME": "COSMOS 2251 DEB", "OBJECT_ID": "1993-036AKP", "EPOCH": "2025-12-16T02:43:49.086048", "MEAN_MOTION": 14.59226402, "ECCENTRICITY": 0.01438084, "INCLINATION": 74.0366, "RA_OF_ASC_NODE": 293.5725, "ARG_OF_PERICENTER": 19.7688, "MEAN_ANOMALY": 340.8969, "EPHEMERIS_TYPE": 0, "CLASSIFICATION_TYPE": "U", "NORAD_CAT_ID": 35445, "ELEMENT_SET_NO": 999, "REV_AT_EPOCH": 87378, "BSTAR": 0.0016132687, "MEAN_MOTION_DOT": 8.774e-05, "MEAN_MOTION_DDOT": 0}, "tle": {"line1": "1 35445U 93036AKP 25350.11376257  .00008774  00000+0  16133-2 0  9990", "line2": "2 35445  74.0366 293.5725 0143808  19.7688 340.8969 14.59226402873782"}}, "geometry": {"type": "Point", "coordinates": [112.25489967661105, -0.6451279148726401]}}, {"type": "Feature", "properties": {"norad_id": 35446, "name": "COSMOS 2251 DEB", "group": "cosmos-2251-debris", "lat": 29.86048064151437, "lon": 120.86027846418732, "alt_km": 700.3926136644404, "timestamp": "2025-12-16T21:38:57.571432+00:00", "meta": {"OBJECT_NAME": "COSMOS 2251 DEB", "OBJECT_ID": "1993-036AKQ", "EPOCH": "2025-12-15T15:15:54.535104", "MEAN_MOTION": 14.54632134, "ECCENTRICITY": 0.00744411, "INCLINATION": 74.047, "RA_OF_ASC_NODE": 312.705, "ARG_OF_PERICENTER": 70.0614, "MEAN_ANOMALY": 290.8548, "EPHEMERIS_TYPE": 0, "CLASSIFICATION_TYPE": "U", "NORAD_CAT_ID": 35446, "ELEMENT_SET_NO": 999, "REV_AT_EPOCH": 88050, "BSTAR": 0.00011676696, "MEAN_MOTION_DOT": 4.88e-06, "MEAN_MOTION_DDOT": 0}, "tle": {"line1": "1 35446U 93036AKQ 25349.63604786  .00000488  00000+0  11677-3 0  9990", "line2": "2 35446  74.0470 312.7050 0074441  70.0614 290.8548 14.54632134880502"}}, "geometry": {"type": "Point", "coordinates": [120.86027846418732, 29.86048064151437]}}, {"type": "Feature", "properties": {"norad_id": 35448, "name": "COSMOS 2251 DEB", "group": "cosmos-2251-debris", "lat": 1.5756238864262042, "lon": 82.03429455529353, "alt_km": 715.2313155204329, "timestamp": "2025-12-16T21:38:57.571442+00:00", "meta": {"OBJECT_NAME": "COSMOS 2251 DEB", "OBJECT_ID": "1993-036AKS", "EPOCH": "2025-12-14T16:48:40.813632", "MEAN_MOTION": 14.54286955, "ECCENTRICITY": 0.00119673, "INCLINATION": 73.9048, "RA_OF_ASC_NODE": 85.7736, "ARG_OF_PERICENTER": 268.2948, "MEAN_ANOMALY": 91.6843, "EPHEMERIS_TYPE": 0, "CLASSIFICATION_TYPE": "U", "NORAD_CAT_ID": 35448, "ELEMENT_SET_NO": 999, "REV_AT_EPOCH": 87363, "BSTAR": 0.00094048305, "MEAN_MOTION_DOT": 3.966e-05, "MEAN_MOTION_DDOT": 0}, "tle": {"line1": "1 35448U 93036AKS 25348.70047238  .00003966  00000+0  94048-3 0  9999", "line2": "2 35448  73.9048  85.7736 0011967 268.2948  91.6843 14.54286955873633"}}, "geometry": {"type": "Point", "coordinates": [82.03429455529353, 1.5756238864262042]}}, {"type": "Feature", "properties": {"norad_id": 35451, "name": "COSMOS 2251 DEB", "group": "cosmos-2251-debris", "lat": 15.297982950892164, "lon": -90.84663762286239, "alt_km": 486.33632423359177, "timestamp": "2025-12-16T21:38:57.571453+00:00", "meta": {"OBJECT_NAME": "COSMOS 2251 DEB", "OBJECT_ID": "1993-036AKV", "EPOCH": "2025-12-14T17:21:00.017568", "MEAN_MOTION": 15.35844177, "ECCENTRICITY": 0.00411257, "INCLINATION": 73.9322, "RA_OF_ASC_NODE": 98.383, "ARG_OF_PERICENTER": 344.054, "MEAN_ANOMALY": 15.9367, "EPHEMERIS_TYPE": 0, "CLASSIFICATION_TYPE": "U", "NORAD_CAT_ID": 35451, "ELEMENT_SET_NO": 999, "REV_AT_EPOCH": 67436, "BSTAR": 0.0011714729, "MEAN_MOTION_DOT": 0.00042215, "MEAN_MOTION_DDOT": 0}, "tle": {"line1": "1 35451U 93036AKV 25348.72291687  .00042215  00000+0  11715-2 0  9993", "line2": "2 35451  73.9322  98.3830 0041125 344.0540  15.9367 15.35844177674362"}}, "geometry": {"type": "Point", "coordinates": [-90.84663762286239, 15.297982950892164]}}, {"type": "Feature", "properties": {"norad_id": 35453, "name": "COSMOS 2251 DEB", "group": "cosmos-2251-debris", "lat": 8.247313123005915, "lon": -169.68700446545964, "alt_km": 723.1701549021291, "timestamp": "2025-12-16T21:38:57.571463+00:00", "meta": {"OBJECT_NAME": "COSMOS 2251 DEB", "OBJECT_ID": "1993-036AKX", "EPOCH": "2025-12-12T10:00:01.192608", "MEAN_MOTION": 14.37983532, "ECCENTRICITY": 0.00672601, "INCLINATION": 74.0093, "RA_OF_ASC_NODE": 20.9669, "ARG_OF_PERICENTER": 155.0047, "MEAN_ANOMALY": 205.439, "EPHEMERIS_TYPE": 0, "CLASSIFICATION_TYPE": "U", "NORAD_CAT_ID": 35453, "ELEMENT_SET_NO": 999, "REV_AT_EPOCH": 86214, "BSTAR": 0.0010887113, "MEAN_MOTION_DOT": 3.355e-05, "MEAN_MOTION_DDOT": 0}, "tle": {"line1": "1 35453U 93036AKX 25346.41668047  .00003355  00000+0  10887-2 0  9998", "line2": "2 35453  74.0093  20.9669 0067260 155.0047 205.4390 14.37983532862149"}}, "geometry": {"type": "Point", "coordinates": [-169.68700446545964, 8.247313123005915]}}, {"type": "Feature", "properties": {"norad_id": 35455, "name": "COSMOS 2251 DEB", "group": "cosmos-2251-debris", "lat": -14.747298695201373, "lon": 111.3136134867394, "alt_km": 800.0678639730086, "timestamp": "2025-12-16T21:38:57.571473+00:00", "meta": {"OBJECT_NAME": "COSMOS 2251 DEB", "OBJECT_ID": "1993-036AKZ", "EPOCH": "2025-12-15T06:39:23.942880", "MEAN_MOTION": 14.49440801, "ECCENTRICITY": 0.00992528, "INCLINATION": 74.0281, "RA_OF_ASC_NODE": 290.039, "ARG_OF_PERICENTER": 32.9545, "MEAN_ANOMALY": 327.7748, "EPHEMERIS_TYPE": 0, "CLASSIFICATION_TYPE": "U", "NORAD_CAT_ID": 35455, "ELEMENT_SET_NO": 999, "REV_AT_EPOCH": 86580, "BSTAR": 0.0011136115, "MEAN_MOTION_DOT": 4.513e-05, "MEAN_MOTION_DDOT": 0}, "tle": {"line1": "1 35455U 93036AKZ 25349.27736045  .00004513  00000+0  11136-2 0  9996", "line2": "2 35455  74.0281 290.0390 0099252  32.9545 327.7748 14.49440801865804"}}, "geometry": {"type": "Point", "coordinates": [111.3136134867394, -14.747298695201373]}}, {"type": "Feature", "properties": {"norad_id": 35456, "name": "COSMOS 2251 DEB", "group": "cosmos-2251-debris", "lat": 41.86792743482342, "lon": -85.58144623523317, "alt_km": 705.3752656888719, "timestamp": "2025-12-16T21:38:57.571483+00:00", "meta": {"OBJECT_NAME": "COSMOS 2251 DEB", "OBJECT_ID": "1993-036ALA", "EPOCH": "2025-12-14T15:06:45.279936", "MEAN_MOTION": 14.69470866, "ECCENTRICITY": 0.00660928, "INCLINATION": 73.9499, "RA_OF_ASC_NODE": 113.7944, "ARG_OF_PERICENTER": 323.212, "MEAN_ANOMALY": 36.4523, "EPHEMERIS_TYPE": 0, "CLASSIFICATION_TYPE": "U", "NORAD_CAT_ID": 35456, "ELEMENT_SET_NO": 999, "REV_AT_EPOCH": 65903, "BSTAR": 0.0014662865, "MEAN_MOTION_DOT": 8.962e-05, "MEAN_MOTION_DDOT": 0}, "tle": {"line1": "1 35456U 93036ALA 25348.62969074  .00008962  00000+0  14663-2 0  9995", "line2": "2 35456  73.9499 113.7944 0066092 323.2120  36.4523 14.69470866659038"}}, "geometry": {"type": "Point", "coordinates": [-85.58144623523317, 41.86792743482342]}}, {"type": "Feature", "properties": {"norad_id": 35459, "name": "COSMOS 2251 DEB", "group": "cosmos-2251-debris", "lat": 36.83462857596118, "lon": -167.93232024724912, "alt_km": 763.338830711823, "timestamp": "2025-12-16T21:38:57.571493+00:00", "meta": {"OBJECT_NAME": "COSMOS 2251 DEB", "OBJECT_ID": "1993-036ALD", "EPOCH": "2025-12-16T06:26:15.791712", "MEAN_MOTION": 14.37466924, "ECCENTRICITY": 0.00161768, "INCLINATION": 73.8692, "RA_OF_ASC_NODE": 180.7257, "ARG_OF_PERICENTER": 127.3646, "MEAN_ANOMALY": 232.8983, "EPHEMERIS_TYPE": 0, "CLASSIFICATION_TYPE": "U", "NORAD_CAT_ID": 35459, "ELEMENT_SET_NO": 999, "REV_AT_EPOCH": 58412, "BSTAR": 0.00023605665, "MEAN_MOTION_DOT": 6.8e-06, "MEAN_MOTION_DDOT": 0}, "tle": {"line1": "1 35459U 93036ALD 25350.26823833  .00000680  00000+0  23606-3 0  9990", "line2": "2 35459  73.8692 180.7257 0016176 127.3646 232.8983 14.37466924584124"}}, "geometry": {"type": "Point", "coordinates": [-167.93232024724912, 36.83462857596118]}}, {"type": "Feature", "properties": {"norad_id": 35462, "name": "COSMOS 2251 DEB", "group": "cosmos-2251-debris", "lat": -17.83331932572426, "lon": -104.15815428447324, "alt_km": 755.2170355774033, "timestamp": "2025-12-16T21:38:57.571503+00:00", "meta": {"OBJECT_NAME": "COSMOS 2251 DEB", "OBJECT_ID": "1993-036ALG", "EPOCH": "2025-12-15T12:08:22.276032", "MEAN_MOTION": 14.29319782, "ECCENTRICITY": 0.00867718, "INCLINATION": 74.0367, "RA_OF_ASC_NODE": 263.6601, "ARG_OF_PERICENTER": 298.2214, "MEAN_ANOMALY": 61.0193, "EPHEMERIS_TYPE": 0, "CLASSIFICATION_TYPE": "U", "NORAD_CAT_ID": 35462, "ELEMENT_SET_NO": 999, "REV_AT_EPOCH": 66420, "BSTAR": 0.0011070348, "MEAN_MOTION_DOT": 2.91e-05, "MEAN_MOTION_DDOT": 0}, "tle": {"line1": "1 35462U 93036ALG 25349.50581338  .00002910  00000+0  11070-2 0  9999", "line2": "2 35462  74.0367 263.6601 0086771 298.2214  61.0193 14.29319782664204"}}, "geometry": {"type": "Point", "coordinates": [-104.15815428447324, -17.83331932572426]}}]}